[
  {
    "OBJECT_NAME": "STARLINK-32464",
    "OBJECT_ID": "2024-224B",
    "EPOCH": "2025-05-03T10:38:19.022208",
    "MEAN_MOTION": 15.40699537,
    "ECCENTRICITY": 8.59e-05,
    "INCLINATION": 43.0017,
    "RA_OF_ASC_NODE": 111.7859,
    "ARG_OF_PERICENTER": 263.0973,
    "MEAN_ANOMALY": 96.9786,
    "EPHEMERIS_TYPE": 0,
    "CLASSIFICATION_TYPE": "U",
    "NORAD_CAT_ID": 62140,
    "ELEMENT_SET_NO": 999,
    "REV_AT_EPOCH": 2495,
    "BSTAR": -4.8346e-05,
    "MEAN_MOTION_DOT": -2.322e-05,
    "MEAN_MOTION_DDOT": 0
  },
  {
    "OBJECT_NAME": "STARLINK-32482",
    "OBJECT_ID": "2024-224C",
    "EPOCH": "2025-05-03T23:37:23.471616",
    "MEAN_MOTION": 15.40717897,
    "ECCENTRICITY": 0.0001655,
    "INCLINATION": 43.0058,
    "RA_OF_ASC_NODE": 108.9706,
    "ARG_OF_PERICENTER": 270.7024,
    "MEAN_ANOMALY": 89.3643,
    "EPHEMERIS_TYPE": 0,
    "CLASSIFICATION_TYPE": "U",
    "NORAD_CAT_ID": 62141,
    "ELEMENT_SET_NO": 999,
    "REV_AT_EPOCH": 2493,
    "BSTAR": -6.2325e-05,
    "MEAN_MOTION_DOT": -2.908e-05,
    "MEAN_MOTION_DDOT": 0
  },
  {
    "OBJECT_NAME": "STARLINK-32454",
    "OBJECT_ID": "2024-224D",
    "EPOCH": "2025-05-04T00:34:34.026816",
    "MEAN_MOTION": 15.27570791,
    "ECCENTRICITY": 9.18e-05,
    "INCLINATION": 43.0014,
    "RA_OF_ASC_NODE": 114.4561,
    "ARG_OF_PERICENTER": 256.6471,
    "MEAN_ANOMALY": 103.4278,
    "EPHEMERIS_TYPE": 0,
    "CLASSIFICATION_TYPE": "U",
    "NORAD_CAT_ID": 62142,
    "ELEMENT_SET_NO": 999,
    "REV_AT_EPOCH": 2503,
    "BSTAR": -1.1663e-07,
    "MEAN_MOTION_DOT": -2.65e-06,
    "MEAN_MOTION_DDOT": 0
  },
  {
    "OBJECT_NAME": "STARLINK-32485",
    "OBJECT_ID": "2024-224E",
    "EPOCH": "2025-05-03T16:40:33.801888",
    "MEAN_MOTION": 15.27567571,
    "ECCENTRICITY": 0.0001135,
    "INCLINATION": 43.0009,
    "RA_OF_ASC_NODE": 111.9637,
    "ARG_OF_PERICENTER": 222.274,
    "MEAN_ANOMALY": 137.8025,
    "EPHEMERIS_TYPE": 0,
    "CLASSIFICATION_TYPE": "U",
    "NORAD_CAT_ID": 62143,
    "ELEMENT_SET_NO": 999,
    "REV_AT_EPOCH": 2460,
    "BSTAR": -8.6898e-05,
    "MEAN_MOTION_DOT": -2.651e-05,
    "MEAN_MOTION_DDOT": 0
  },
  {
    "OBJECT_NAME": "STARLINK-32388",
    "OBJECT_ID": "2024-224F",
    "EPOCH": "2025-05-04T00:29:00.926304",
    "MEAN_MOTION": 15.27574602,
    "ECCENTRICITY": 0.0001266,
    "INCLINATION": 43.0015,
    "RA_OF_ASC_NODE": 114.4274,
    "ARG_OF_PERICENTER": 234.5818,
    "MEAN_ANOMALY": 125.4916,
    "EPHEMERIS_TYPE": 0,
    "CLASSIFICATION_TYPE": "U",
    "NORAD_CAT_ID": 62144,
    "ELEMENT_SET_NO": 999,
    "REV_AT_EPOCH": 2503,
    "BSTAR": -1.2476e-05,
    "MEAN_MOTION_DOT": -6.05e-06,
    "MEAN_MOTION_DDOT": 0
  },
  {
    "OBJECT_NAME": "STARLINK-32374",
    "OBJECT_ID": "2024-224G",
    "EPOCH": "2025-05-04T00:09:28.150848",
    "MEAN_MOTION": 15.40692097,
    "ECCENTRICITY": 0.00014,
    "INCLINATION": 43.0032,
    "RA_OF_ASC_NODE": 108.2722,
    "ARG_OF_PERICENTER": 281.7927,
    "MEAN_ANOMALY": 78.2773,
    "EPHEMERIS_TYPE": 0,
    "CLASSIFICATION_TYPE": "U",
    "NORAD_CAT_ID": 62145,
    "ELEMENT_SET_NO": 999,
    "REV_AT_EPOCH": 2510,
    "BSTAR": -2.5203e-05,
    "MEAN_MOTION_DOT": -1.356e-05,
    "MEAN_MOTION_DDOT": 0
  },
  {
    "OBJECT_NAME": "STARLINK-32384",
    "OBJECT_ID": "2024-224H",
    "EPOCH": "2025-05-03T06:40:11.601984",
    "MEAN_MOTION": 15.40694002,
    "ECCENTRICITY": 0.0001151,
    "INCLINATION": 43.0021,
    "RA_OF_ASC_NODE": 113.1279,
    "ARG_OF_PERICENTER": 276.437,
    "MEAN_ANOMALY": 83.6355,
    "EPHEMERIS_TYPE": 0,
    "CLASSIFICATION_TYPE": "U",
    "NORAD_CAT_ID": 62146,
    "ELEMENT_SET_NO": 999,
    "REV_AT_EPOCH": 2498,
    "BSTAR": -4.3593e-05,
    "MEAN_MOTION_DOT": -2.123e-05,
    "MEAN_MOTION_DDOT": 0
  },
  {
    "OBJECT_NAME": "STARLINK-32295",
    "OBJECT_ID": "2024-224J",
    "EPOCH": "2025-05-03T16:09:47.686176",
    "MEAN_MOTION": 15.40693642,
    "ECCENTRICITY": 0.0001185,
    "INCLINATION": 43.0008,
    "RA_OF_ASC_NODE": 110.0679,
    "ARG_OF_PERICENTER": 263.4552,
    "MEAN_ANOMALY": 96.6169,
    "EPHEMERIS_TYPE": 0,
    "CLASSIFICATION_TYPE": "U",
    "NORAD_CAT_ID": 62147,
    "ELEMENT_SET_NO": 999,
    "REV_AT_EPOCH": 2494,
    "BSTAR": 3.5643e-06,
    "MEAN_MOTION_DOT": -1.54e-06,
    "MEAN_MOTION_DDOT": 0
  },
  {
    "OBJECT_NAME": "STARLINK-32479",
    "OBJECT_ID": "2024-224K",
    "EPOCH": "2025-05-04T00:03:12.929472",
    "MEAN_MOTION": 15.40733999,
    "ECCENTRICITY": 0.0001458,
    "INCLINATION": 43.0035,
    "RA_OF_ASC_NODE": 109.1043,
    "ARG_OF_PERICENTER": 278.9812,
    "MEAN_ANOMALY": 81.088,
    "EPHEMERIS_TYPE": 0,
    "CLASSIFICATION_TYPE": "U",
    "NORAD_CAT_ID": 62148,
    "ELEMENT_SET_NO": 999,
    "REV_AT_EPOCH": 2502,
    "BSTAR": -0.00019603,
    "MEAN_MOTION_DOT": -8.492e-05,
    "MEAN_MOTION_DDOT": 0
  },
  {
    "OBJECT_NAME": "STARLINK-32468",
    "OBJECT_ID": "2024-224L",
    "EPOCH": "2025-05-04T00:28:49.372896",
    "MEAN_MOTION": 15.40693217,
    "ECCENTRICITY": 0.0001918,
    "INCLINATION": 43.0041,
    "RA_OF_ASC_NODE": 108.372,
    "ARG_OF_PERICENTER": 271.1965,
    "MEAN_ANOMALY": 88.8672,
    "EPHEMERIS_TYPE": 0,
    "CLASSIFICATION_TYPE": "U",
    "NORAD_CAT_ID": 62149,
    "ELEMENT_SET_NO": 999,
    "REV_AT_EPOCH": 2494,
    "BSTAR": 2.6755e-05,
    "MEAN_MOTION_DOT": 8.14e-06,
    "MEAN_MOTION_DDOT": 0
  },
  {
    "OBJECT_NAME": "STARLINK-32629",
    "OBJECT_ID": "2024-224M",
    "EPOCH": "2025-05-03T16:06:45.681984",
    "MEAN_MOTION": 15.40686293,
    "ECCENTRICITY": 0.0001782,
    "INCLINATION": 43.0042,
    "RA_OF_ASC_NODE": 110.9208,
    "ARG_OF_PERICENTER": 256.8003,
    "MEAN_ANOMALY": 103.2655,
    "EPHEMERIS_TYPE": 0,
    "CLASSIFICATION_TYPE": "U",
    "NORAD_CAT_ID": 62150,
    "ELEMENT_SET_NO": 999,
    "REV_AT_EPOCH": 2504,
    "BSTAR": 6.6142e-05,
    "MEAN_MOTION_DOT": 2.459e-05,
    "MEAN_MOTION_DDOT": 0
  },
  {
    "OBJECT_NAME": "STARLINK-32644",
    "OBJECT_ID": "2024-224N",
    "EPOCH": "2025-05-03T06:36:46.527264",
    "MEAN_MOTION": 15.40702451,
    "ECCENTRICITY": 0.0001387,
    "INCLINATION": 43.0038,
    "RA_OF_ASC_NODE": 112.2413,
    "ARG_OF_PERICENTER": 262.7336,
    "MEAN_ANOMALY": 97.3362,
    "EPHEMERIS_TYPE": 0,
    "CLASSIFICATION_TYPE": "U",
    "NORAD_CAT_ID": 62151,
    "ELEMENT_SET_NO": 999,
    "REV_AT_EPOCH": 2499,
    "BSTAR": -3.922e-05,
    "MEAN_MOTION_DOT": -1.941e-05,
    "MEAN_MOTION_DDOT": 0
  },
  {
    "OBJECT_NAME": "STARLINK-32623",
    "OBJECT_ID": "2024-224P",
    "EPOCH": "2025-05-04T05:28:37.039872",
    "MEAN_MOTION": 15.27579806,
    "ECCENTRICITY": 0.0001302,
    "INCLINATION": 43.0027,
    "RA_OF_ASC_NODE": 109.0884,
    "ARG_OF_PERICENTER": 242.6607,
    "MEAN_ANOMALY": 117.4112,
    "EPHEMERIS_TYPE": 0,
    "CLASSIFICATION_TYPE": "U",
    "NORAD_CAT_ID": 62152,
    "ELEMENT_SET_NO": 999,
    "REV_AT_EPOCH": 2504,
    "BSTAR": -6.9538e-05,
    "MEAN_MOTION_DOT": -2.175e-05,
    "MEAN_MOTION_DDOT": 0
  },
  {
    "OBJECT_NAME": "STARLINK-32639",
    "OBJECT_ID": "2024-224Q",
    "EPOCH": "2025-05-03T16:13:00.277824",
    "MEAN_MOTION": 15.40714757,
    "ECCENTRICITY": 0.0001824,
    "INCLINATION": 43.0042,
    "RA_OF_ASC_NODE": 110.086,
    "ARG_OF_PERICENTER": 274.586,
    "MEAN_ANOMALY": 85.4788,
    "EPHEMERIS_TYPE": 0,
    "CLASSIFICATION_TYPE": "U",
    "NORAD_CAT_ID": 62153,
    "ELEMENT_SET_NO": 999,
    "REV_AT_EPOCH": 2489,
    "BSTAR": -6.2443e-05,
    "MEAN_MOTION_DOT": -2.912e-05,
    "MEAN_MOTION_DDOT": 0
  }
]