STARLINK-32464          
1 62140U 24224B   25123.44327572 -.00002322  00000+0 -48346-4 0  9993
2 62140  43.0017 111.7859 0000859 263.0973  96.9786 15.40699537 24958
STARLINK-32482          
1 62141U 24224C   25123.98429944 -.00002908  00000+0 -62325-4 0  9992
2 62141  43.0058 108.9706 0001655 270.7024  89.3643 15.40717897 24936
STARLINK-32454          
1 62142U 24224D   25124.02400494 -.00000265  00000+0 -11663-6 0  9993
2 62142  43.0014 114.4561 0000918 256.6471 103.4278 15.27570791 25039
STARLINK-32485          
1 62143U 24224E   25123.69483567 -.00002651  00000+0 -86898-4 0  9999
2 62143  43.0009 111.9637 0001135 222.2740 137.8025 15.27567571 24605
STARLINK-32388          
1 62144U 24224F   25124.02014961 -.00000605  00000+0 -12476-4 0  9994
2 62144  43.0015 114.4274 0001266 234.5818 125.4916 15.27574602 25038
STARLINK-32374          
1 62145U 24224G   25124.00657582 -.00001356  00000+0 -25203-4 0  9991
2 62145  43.0032 108.2722 0001400 281.7927  78.2773 15.40692097 25100
STARLINK-32384          
1 62146U 24224H   25123.27791206 -.00002123  00000+0 -43593-4 0  9997
2 62146  43.0021 113.1279 0001151 276.4370  83.6355 15.40694002 24986
STARLINK-32295          
1 62147U 24224J   25123.67346859 -.00000154  00000+0  35643-5 0  9991
2 62147  43.0008 110.0679 0001185 263.4552  96.6169 15.40693642 24949
STARLINK-32479          
1 62148U 24224K   25124.00223298 -.00008492  00000+0 -19603-3 0  9991
2 62148  43.0035 109.1043 0001458 278.9812  81.0880 15.40733999 25025
STARLINK-32468          
1 62149U 24224L   25124.02001589  .00000814  00000+0  26755-4 0  9996
2 62149  43.0041 108.3720 0001918 271.1965  88.8672 15.40693217 24943
STARLINK-32629          
1 62150U 24224M   25123.67136206  .00002459  00000+0  66142-4 0  9994
2 62150  43.0042 110.9208 0001782 256.8003 103.2655 15.40686293 25049
STARLINK-32644          
1 62151U 24224N   25123.27553851 -.00001941  00000+0 -39220-4 0  9994
2 62151  43.0038 112.2413 0001387 262.7336  97.3362 15.40702451 24990
STARLINK-32623          
1 62152U 24224P   25124.22820648 -.00002175  00000+0 -69538-4 0  9997
2 62152  43.0027 109.0884 0001302 242.6607 117.4112 15.27579806 25045
STARLINK-32639          
1 62153U 24224Q   25123.67569766 -.00002912  00000+0 -62443-4 0  9994
2 62153  43.0042 110.0860 0001824 274.5860  85.4788 15.40714757 24899
